{
  "type": "FeatureCollection",
  "features": [
    {
      "type": "Feature",
      "properties": {
        "norad_id": 46271,
        "name": "COSMOS 2251 DEB",
        "group": "cosmos-2251-debris",
        "lat": -68.33286097455729,
        "lon": 42.512719080687994,
        "alt_km": 719.8993233158299,
        "timestamp": "2025-12-07T05:38:10.302068+00:00",
        "meta_object_name": "COSMOS 2251 DEB",
        "meta_object_id": "1993-036BWT",
        "meta_epoch": "2025-12-02T01:54:44.684640",
        "meta_mean_motion": 14.51374966,
        "meta_eccentricity": 0.00407046,
        "meta_inclination": 74.046,
        "meta_ra_of_asc_node": 98.2636,
        "meta_arg_of_pericenter": 221.9387,
        "meta_mean_anomaly": 137.8656,
        "meta_ephemeris_type": 0,
        "meta_classification_type": "U",
        "meta_norad_cat_id": 46271,
        "meta_element_set_no": 999,
        "meta_rev_at_epoch": 84487,
        "meta_bstar": 0.0004698569,
        "meta_mean_motion_dot": 1.865e-05,
        "meta_mean_motion_ddot": 0,
        "tle_line1": "1 46271U 93036BWT 25336.07968385  .00001865  00000+0  46986-3 0  9991",
        "tle_line2": "2 46271  74.0460  98.2636 0040704 221.9387 137.8656 14.51374966844877"
      },
      "geometry": {
        "type": "Point",
        "coordinates": [
          42.512719080687994,
          -68.33286097455729
        ]
      }
    },
    {
      "type": "Feature",
      "properties": {
        "norad_id": 46430,
        "name": "COSMOS 2251 DEB",
        "group": "cosmos-2251-debris",
        "lat": -5.948727890903883,
        "lon": 5.068816549584792,
        "alt_km": 694.981117796744,
        "timestamp": "2025-12-07T05:38:10.302078+00:00",
        "meta_object_name": "COSMOS 2251 DEB",
        "meta_object_id": "1993-036BWU",
        "meta_epoch": "2025-12-03T09:00:26.936928",
        "meta_mean_motion": 14.51043928,
        "meta_eccentricity": 0.01031866,
        "meta_inclination": 73.9151,
        "meta_ra_of_asc_node": 14.104,
        "meta_arg_of_pericenter": 295.9829,
        "meta_mean_anomaly": 63.073,
        "meta_ephemeris_type": 0,
        "meta_classification_type": "U",
        "meta_norad_cat_id": 46430,
        "meta_element_set_no": 999,
        "meta_rev_at_epoch": 79547,
        "meta_bstar": 0.0030362826,
        "meta_mean_motion_dot": 0.00012872,
        "meta_mean_motion_ddot": 0,
        "tle_line1": "1 46430U 93036BWU 25337.37531177  .00012872  00000+0  30363-2 0  9998",
        "tle_line2": "2 46430  73.9151  14.1040 0103186 295.9829  63.0730 14.51043928795476"
      },
      "geometry": {
        "type": "Point",
        "coordinates": [
          5.068816549584792,
          -5.948727890903883
        ]
      }
    },
    {
      "type": "Feature",
      "properties": {
        "norad_id": 46432,
        "name": "COSMOS 2251 DEB",
        "group": "cosmos-2251-debris",
        "lat": -45.82110494774343,
        "lon": -42.70909902266858,
        "alt_km": 777.9130467147643,
        "timestamp": "2025-12-07T05:38:10.302088+00:00",
        "meta_object_name": "COSMOS 2251 DEB",
        "meta_object_id": "1993-036BWW",
        "meta_epoch": "2025-12-06T16:01:31.706976",
        "meta_mean_motion": 13.3661688,
        "meta_eccentricity": 0.04737874,
        "meta_inclination": 73.8715,
        "meta_ra_of_asc_node": 120.8611,
        "meta_arg_of_pericenter": 239.3402,
        "meta_mean_anomaly": 141.9377,
        "meta_ephemeris_type": 0,
        "meta_classification_type": "U",
        "meta_norad_cat_id": 46432,
        "meta_element_set_no": 999,
        "meta_rev_at_epoch": 66885,
        "meta_bstar": 0.0019683261,
        "meta_mean_motion_dot": 1.915e-05,
        "meta_mean_motion_ddot": 0,
        "tle_line1": "1 46432U 93036BWW 25340.66772809  .00001915  00000+0  19683-2 0  9993",
        "tle_line2": "2 46432  73.8715 120.8611 0473787 239.3402 141.9377 13.36616880668857"
      },
      "geometry": {
        "type": "Point",
        "coordinates": [
          -42.70909902266858,
          -45.82110494774343
        ]
      }
    },
    {
      "type": "Feature",
      "properties": {
        "norad_id": 47045,
        "name": "COSMOS 2251 DEB",
        "group": "cosmos-2251-debris",
        "lat": 45.92942088601391,
        "lon": 176.48069528929182,
        "alt_km": 764.2426184716114,
        "timestamp": "2025-12-07T05:38:10.302098+00:00",
        "meta_object_name": "COSMOS 2251 DEB",
        "meta_object_id": "1993-036BWZ",
        "meta_epoch": "2025-12-03T07:08:12.151968",
        "meta_mean_motion": 14.38891608,
        "meta_eccentricity": 0.0030084,
        "meta_inclination": 74.0566,
        "meta_ra_of_asc_node": 166.5562,
        "meta_arg_of_pericenter": 309.0569,
        "meta_mean_anomaly": 231.0781,
        "meta_ephemeris_type": 0,
        "meta_classification_type": "U",
        "meta_norad_cat_id": 47045,
        "meta_element_set_no": 999,
        "meta_rev_at_epoch": 7669,
        "meta_bstar": 0.00011844,
        "meta_mean_motion_dot": 3.4e-06,
        "meta_mean_motion_ddot": 0,
        "tle_line1": "1 47045U 93036BWZ 25337.29736287  .00000340  00000+0  11844-3 0  9992",
        "tle_line2": "2 47045  74.0566 166.5562 0030084 309.0569 231.0781 14.38891608 76696"
      },
      "geometry": {
        "type": "Point",
        "coordinates": [
          176.48069528929182,
          45.92942088601391
        ]
      }
    },
    {
      "type": "Feature",
      "properties": {
        "norad_id": 47048,
        "name": "COSMOS 2251 DEB",
        "group": "cosmos-2251-debris",
        "lat": 63.09605657994245,
        "lon": 4.098014745432525,
        "alt_km": 711.967079398275,
        "timestamp": "2025-12-07T05:38:10.302109+00:00",
        "meta_object_name": "COSMOS 2251 DEB",
        "meta_object_id": "1993-036BXC",
        "meta_epoch": "2025-12-04T08:10:39.254304",
        "meta_mean_motion": 14.52183959,
        "meta_eccentricity": 0.0133528,
        "meta_inclination": 73.9778,
        "meta_ra_of_asc_node": 335.0779,
        "meta_arg_of_pericenter": 165.1593,
        "meta_mean_anomaly": 260.296,
        "meta_ephemeris_type": 0,
        "meta_classification_type": "U",
        "meta_norad_cat_id": 47048,
        "meta_element_set_no": 999,
        "meta_rev_at_epoch": 59568,
        "meta_bstar": 0.002635,
        "meta_mean_motion_dot": 0.00012001,
        "meta_mean_motion_ddot": 0,
        "tle_line1": "1 47048U 93036BXC 25338.34073211  .00012001  00000+0  26350-2 0  9997",
        "tle_line2": "2 47048  73.9778 335.0779 0133528 165.1593 260.2960 14.52183959595687"
      },
      "geometry": {
        "type": "Point",
        "coordinates": [
          4.098014745432525,
          63.09605657994245
        ]
      }
    },
    {
      "type": "Feature",
      "properties": {
        "norad_id": 47051,
        "name": "COSMOS 2251 DEB",
        "group": "cosmos-2251-debris",
        "lat": -72.49850208726751,
        "lon": 127.91935624846354,
        "alt_km": 796.2232908953174,
        "timestamp": "2025-12-07T05:38:10.302140+00:00",
        "meta_object_name": "COSMOS 2251 DEB",
        "meta_object_id": "1993-036BXF",
        "meta_epoch": "2025-12-01T21:55:10.667424",
        "meta_mean_motion": 13.67061051,
        "meta_eccentricity": 0.03413205,
        "meta_inclination": 74.1012,
        "meta_ra_of_asc_node": 201.2803,
        "meta_arg_of_pericenter": 317.1785,
        "meta_mean_anomaly": 62.4119,
        "meta_ephemeris_type": 0,
        "meta_classification_type": "U",
        "meta_norad_cat_id": 47051,
        "meta_element_set_no": 999,
        "meta_rev_at_epoch": 59790,
        "meta_bstar": 0.0015947644,
        "meta_mean_motion_dot": 1.973e-05,
        "meta_mean_motion_ddot": 0,
        "tle_line1": "1 47051U 93036BXF 25335.91331791  .00001973  00000+0  15948-2 0  9998",
        "tle_line2": "2 47051  74.1012 201.2803 0341320 317.1785  62.4119 13.67061051597908"
      },
      "geometry": {
        "type": "Point",
        "coordinates": [
          127.91935624846354,
          -72.49850208726751
        ]
      }
    },
    {
      "type": "Feature",
      "properties": {
        "norad_id": 47052,
        "name": "COSMOS 2251 DEB",
        "group": "cosmos-2251-debris",
        "lat": 62.88392536033901,
        "lon": 24.37141391251604,
        "alt_km": 725.7113473359786,
        "timestamp": "2025-12-07T05:38:10.302151+00:00",
        "meta_object_name": "COSMOS 2251 DEB",
        "meta_object_id": "1993-036BXG",
        "meta_epoch": "2025-12-05T19:01:13.155168",
        "meta_mean_motion": 14.35464627,
        "meta_eccentricity": 0.00577854,
        "meta_inclination": 74.049,
        "meta_ra_of_asc_node": 353.0607,
        "meta_arg_of_pericenter": 69.2726,
        "meta_mean_anomaly": 108.045,
        "meta_ephemeris_type": 0,
        "meta_classification_type": "U",
        "meta_norad_cat_id": 47052,
        "meta_element_set_no": 999,
        "meta_rev_at_epoch": 61689,
        "meta_bstar": 0.00041416194,
        "meta_mean_motion_dot": 1.188e-05,
        "meta_mean_motion_ddot": 0,
        "tle_line1": "1 47052U 93036BXG 25339.79251337  .00001188  00000+0  41416-3 0  9994",
        "tle_line2": "2 47052  74.0490 353.0607 0057785  69.2726 108.0450 14.35464627616892"
      },
      "geometry": {
        "type": "Point",
        "coordinates": [
          24.37141391251604,
          62.88392536033901
        ]
      }
    }
  ]
}